NORAD_CAT_ID,OBJECT_NAME,OBJECT_TYPE,EPOCH,MEAN_MOTION,ECCENTRICITY,INCLINATION,RA_OF_ASC_NODE,ARG_OF_PERICENTER,MEAN_ANOMALY,BSTAR,MEAN_MOTION_DOT,MEAN_MOTION_DDOT,TLE_LINE0,TLE_LINE1,TLE_LINE2,SEMIMAJOR_AXIS,PERIOD,APOGEE,PERIGEE,DECAYED
50832.0,STARLINK-3328,PAYLOAD,2024-01-07 08:29:24,15.08837298,0.0001125,53.2156,136.1009,75.6518,284.4599,0.00013676,1.889e-05,0.0,0 STARLINK-3328,1 50832U 22001AF  24007.35375630  .00001889  00000-0  13676-3 0  9990,2 50832  53.2156 136.1009 0001125  75.6518 284.4599 15.08837298111907,6917.889,95.438,540.532,538.975,0.0
50832.0,STARLINK-3328,PAYLOAD,2024-01-07 14:50:56,15.08842851,0.0001222,53.2158,134.912,70.8145,289.2979,0.00017444,2.49e-05,0.0,0 STARLINK-3328,1 50832U 22001AF  24007.61871456  .00002490  00000-0  17444-3 0  9992,2 50832  53.2158 134.9120 0001222  70.8145 289.2979 15.08842851110691,6917.872,95.437,540.582,538.891,0.0
50832.0,STARLINK-3328,PAYLOAD,2024-01-08 11:30:57,15.08844955,0.0001365,53.2159,131.0473,58.7662,301.3464,0.00018636,2.68e-05,0.0,0 STARLINK-3328,1 50832U 22001AF  24008.47983428  .00002680  00000-0  18636-3 0  9995,2 50832  53.2159 131.0473 0001365  58.7662 301.3464 15.08844955112074,6917.865,95.437,540.675,538.786,0.0
50832.0,STARLINK-3328,PAYLOAD,2024-01-08 14:41:43,15.08848362,0.0001409,53.2161,130.4524,59.3861,300.727,0.00022296,3.263e-05,0.0,0 STARLINK-3328,1 50832U 22001AF  24008.61231250  .00003263  00000-0  22296-3 0  9995,2 50832  53.2161 130.4524 0001409  59.3861 300.7270 15.08848362110841,6917.855,95.437,540.695,538.745,0.0
50832.0,STARLINK-3328,PAYLOAD,2024-01-09 12:57:07,15.08842908,0.0001211,53.216,126.2884,78.1137,281.9991,3.3962e-05,2.53e-06,0.0,0 STARLINK-3328,1 50832U 22001AF  24009.53967240  .00000253  00000-0  33962-4 0  9991,2 50832  53.2160 126.2884 0001211  78.1137 281.9991 15.08842908112233,6917.872,95.437,540.574,538.899,0.0
50832.0,STARLINK-3328,PAYLOAD,2024-01-09 14:32:30,15.08845126,0.0001142,53.2169,125.9909,75.1247,284.9871,5.3868e-05,5.7e-06,0.0,0 STARLINK-3328,1 50832U 22001AF  24009.60591169  .00000570  00000-0  53868-4 0  9991,2 50832  53.2169 125.9909 0001142  75.1247 284.9871 15.08845126110994,6917.865,95.437,540.52,538.94,0.0
50832.0,STARLINK-3328,PAYLOAD,2024-01-10 11:12:31,15.08841113,0.0001167,53.2171,122.1249,83.2275,276.885,7.1024e-06,-1.75e-06,0.0,0 STARLINK-3328,1 50832U 22001AF  24010.46703482 -.00000175  00000-0  71024-5 0  9997,2 50832  53.2171 122.1249 0001167  83.2275 276.8850 15.08841113111126,6917.877,95.437,540.549,538.935,0.0
50832.0,STARLINK-3328,PAYLOAD,2024-01-11 11:03:19,15.0883829,0.0001326,53.2171,117.6663,78.8484,281.2657,6.4907e-05,7.45e-06,0.0,0 STARLINK-3328,1 50832U 22001AF  24011.46063837  .00000745  00000-0  64907-4 0  9994,2 50832  53.2171 117.6663 0001326  78.8484 281.2657 15.08838290112526,6917.886,95.438,540.668,538.833,0.0
50832.0,STARLINK-3328,PAYLOAD,2024-01-11 12:38:42,15.0884012,0.000133,53.2169,117.3688,80.1423,279.972,8.2222e-05,1.021e-05,0.0,0 STARLINK-3328,1 50832U 22001AF  24011.52687741  .00001021  00000-0  82222-4 0  9995,2 50832  53.2169 117.3688 0001330  80.1423 279.9720 15.08840120111283,6917.88,95.438,540.665,538.825,0.0
50832.0,STARLINK-3328,PAYLOAD,2024-01-12 14:04:52,15.0884187,0.0001354,53.2174,112.6125,70.7222,289.3916,3.9104e-05,3.35e-06,0.0,0 STARLINK-3328,1 50832U 22001AF  24012.58672037  .00000335  00000-0  39104-4 0  9992,2 50832  53.2174 112.6125 0001354  70.7222 289.3916 15.08841870111444,6917.875,95.437,540.676,538.803,0.0
50832.0,STARLINK-3328,PAYLOAD,2024-01-12 15:40:15,15.08846862,0.0001263,53.2173,112.3148,83.2107,276.9029,2.5123e-05,1.12e-06,0.0,0 STARLINK-3328,1 50832U 22001AF  24012.65295665  .00000112  00000-0  25123-4 0  9997,2 50832  53.2173 112.3148 0001263  83.2107 276.9029 15.08846862112708,6917.859,95.437,540.598,538.851,0.0
50832.0,STARLINK-3328,PAYLOAD,2024-01-13 13:55:39,15.08849434,0.0001555,53.2162,108.1496,78.6347,281.482,0.00021571,3.148e-05,0.0,0 STARLINK-3328,1 50832U 22001AF  24013.58031573  .00003148  00000-0  21571-3 0  9990,2 50832  53.2162 108.1496 0001555  78.6347 281.4820 15.08849434111597,6917.852,95.437,540.792,538.641,0.0
50832.0,STARLINK-3328,PAYLOAD,2024-01-14 12:11:03,15.08842885,0.0001445,53.2154,103.9887,79.8036,280.3119,9.6682e-05,1.251e-05,0.0,0 STARLINK-3328,1 50832U 22001AF  24014.50768032  .00001251  00000-0  96682-4 0  9999,2 50832  53.2154 103.9887 0001445  79.8036 280.3119 15.08842885112987,6917.872,95.437,540.736,538.737,0.0
50832.0,STARLINK-3328,PAYLOAD,2024-01-15 12:01:50,15.08852258,0.0001749,53.2153,99.5293,64.1106,296.0066,0.00015465,2.175e-05,0.0,0 STARLINK-3328,1 50832U 22001AF  24015.50127645  .00002175  00000-0  15465-3 0  9994,2 50832  53.2153  99.5293 0001749  64.1106 296.0066 15.08852258111887,6917.843,95.437,540.918,538.498,0.0
50832.0,STARLINK-3328,PAYLOAD,2024-01-16 10:17:14,15.08838772,0.0001861,53.2163,95.365,98.3227,261.7976,3.32e-05,2.4e-06,0.0,0 STARLINK-3328,1 50832U 22001AF  24016.42864189  .00000240  00000-0  33200-4 0  9996,2 50832  53.2163  95.3650 0001861  98.3227 261.7976 15.08838772113276,6917.884,95.438,541.037,538.462,0.0
50832.0,STARLINK-3328,PAYLOAD,2024-01-16 13:28:01,15.08836807,0.0001727,53.216,94.7672,92.7214,267.3976,-4.5201e-06,-3.6e-06,0.0,0 STARLINK-3328,1 50832U 22001AF  24016.56112438 -.00000360  00000-0 -45201-5 0  9994,2 50832  53.2160  94.7672 0001727  92.7214 267.3976 15.08836807112048,6917.89,95.438,540.95,538.56,0.0
50832.0,STARLINK-3328,PAYLOAD,2024-01-16 15:03:24,15.08836563,0.0001708,53.2161,94.4695,93.0416,267.0771,-1.2678e-05,-4.9e-06,0.0,0 STARLINK-3328,1 50832U 22001AF  24016.62736370 -.00000490  00000-0 -12678-4 0  9993,2 50832  53.2161  94.4695 0001708  93.0416 267.0771 15.08836563112058,6917.891,95.438,540.937,538.574,0.0
50832.0,STARLINK-3328,PAYLOAD,2024-01-17 10:08:01,15.08840564,0.0001703,53.2172,90.9002,92.3001,267.8186,-2.7087e-06,-3.31e-06,0.0,0 STARLINK-3328,1 50832U 22001AF  24017.42224394 -.00000331  00000-0 -27087-5 0  9995,2 50832  53.2172  90.9002 0001703  92.3001 267.8186 15.08840564112177,6917.879,95.438,540.922,538.566,0.0
50832.0,STARLINK-3328,PAYLOAD,2024-01-18 03:37:16,15.0883309,0.0001721,53.2168,87.6301,88.5048,271.6142,6.4258e-05,7.35e-06,0.0,0 STARLINK-3328,1 50832U 22001AF  24018.15089079  .00000735  00000-0  64258-4 0  9991,2 50832  53.2168  87.6301 0001721  88.5048 271.6142 15.08833090113537,6917.902,95.438,540.957,538.576,0.0
50832.0,STARLINK-3328,PAYLOAD,2024-01-18 13:09:35,15.08837533,0.0001598,53.2182,85.8476,84.7465,275.371,0.00013363,1.839e-05,0.0,0 STARLINK-3328,1 50832U 22001AF  24018.54832963  .00001839  00000-0  13363-3 0  9998,2 50832  53.2182  85.8476 0001598  84.7465 275.3710 15.08837533112345,6917.888,95.438,540.858,538.647,0.0
50832.0,STARLINK-3328,PAYLOAD,2024-01-19 11:24:59,15.0884822,0.0001626,53.2188,81.6889,97.5922,262.5255,8.953e-05,1.137e-05,0.0,0 STARLINK-3328,1 50832U 22001AF  24019.47568655  .00001137  00000-0  89530-4 0  9996,2 50832  53.2188  81.6889 0001626  97.5922 262.5255 15.08848220113736,6917.855,95.437,540.845,538.595,0.0
50832.0,STARLINK-3328,PAYLOAD,2024-01-19 13:00:22,15.08846111,0.0001673,53.2179,81.3887,92.8638,267.2546,0.00017525,2.503e-05,0.0,0 STARLINK-3328,1 50832U 22001AF  24019.54192607  .00002503  00000-0  17525-3 0  9996,2 50832  53.2179  81.3887 0001673  92.8638 267.2546 15.08846111112499,6917.862,95.437,540.884,538.569,0.0
50832.0,STARLINK-3328,PAYLOAD,2024-01-19 22:32:41,15.08830715,0.0001478,53.2195,79.6092,82.9588,277.1572,0.0002731,4.06e-05,0.0,0 STARLINK-3328,1 50832U 22001AF  24019.93937125  .00004060  00000-0  27310-3 0  9994,2 50832  53.2195  79.6092 0001478  82.9588 277.1572 15.08830715113800,6917.909,95.438,540.796,538.751,0.0
50832.0,STARLINK-3328,PAYLOAD,2024-01-20 12:51:10,15.08839009,0.0001393,53.2168,76.9259,94.5395,265.5756,6.6026e-05,7.63e-06,0.0,0 STARLINK-3328,1 50832U 22001AF  24020.53553444  .00000763  00000-0  66026-4 0  9994,2 50832  53.2168  76.9259 0001393  94.5395 265.5756 15.08839009112647,6917.883,95.438,540.712,538.785,0.0
50832.0,STARLINK-3328,PAYLOAD,2024-01-21 03:09:38,15.08840036,0.0001299,53.2167,74.25,89.2812,270.8329,9.1128e-05,1.163e-05,0.0,0 STARLINK-3328,1 50832U 22001AF  24021.13169350  .00001163  00000-0  91128-4 0  9996,2 50832  53.2167  74.2500 0001299  89.2812 270.8329 15.08840036113981,6917.88,95.438,540.644,538.847,0.0
50832.0,STARLINK-3328,PAYLOAD,2024-01-21 11:06:33,15.08852881,0.0001486,53.2176,72.7662,84.3255,275.7907,0.00012906,1.767e-05,0.0,0 STARLINK-3328,1 50832U 22001AF  24021.46288606  .00001767  00000-0  12906-3 0  9994,2 50832  53.2176  72.7662 0001486  84.3255 275.7907 15.08852881114032,6917.841,95.437,540.734,538.678,0.0
50832.0,STARLINK-3328,PAYLOAD,2024-01-22 09:21:57,15.08838833,0.0001918,53.2193,68.6003,123.4243,236.6933,0.00013219,1.816e-05,0.0,0 STARLINK-3328,1 50832U 22001AF  24022.39025198  .00001816  00000-0  13219-3 0  9995,2 50832  53.2193  68.6003 0001918 123.4243 236.6933 15.08838833114177,6917.884,95.438,541.076,538.422,0.0
50832.0,STARLINK-3328,PAYLOAD,2024-01-23 06:01:58,15.08846784,0.0001495,53.219,64.7368,93.7515,266.3648,7.3162e-05,8.77e-06,0.0,0 STARLINK-3328,1 50832U 22001AF  24023.25136834  .00000877  00000-0  73162-4 0  9991,2 50832  53.2190  64.7368 0001495  93.7515 266.3648 15.08846784113059,6917.86,95.437,540.759,538.69,0.0
50832.0,STARLINK-3328,PAYLOAD,2024-01-23 09:12:44,15.08848316,0.0001302,53.2197,64.1415,78.9741,281.1397,0.00011281,1.508e-05,0.0,0 STARLINK-3328,1 50832U 22001AF  24023.38384651  .00001508  00000-0  11281-3 0  9992,2 50832  53.2197  64.1415 0001302  78.9741 281.1397 15.08848316114326,6917.855,95.437,540.621,538.819,0.0
50832.0,STARLINK-3328,PAYLOAD,2024-01-24 09:03:31,15.08838834,0.0001945,53.2194,59.6817,121.9803,238.1379,5.7619e-05,6.29e-06,0.0,0 STARLINK-3328,1 50832U 22001AF  24024.37745263  .00000629  00000-0  57619-4 0  9991,2 50832  53.2194  59.6817 0001945 121.9803 238.1379 15.08838834114471,6917.884,95.438,541.094,538.403,0.0
